start=new Date('2023-02-13T00:00:00.000Z').valueOf();
sats=[{"MEAN_ELEMENT_THEORY":"SGP4","SITE":"AFWTR","MEAN_ANOMALY":"88.7079","RCS_SIZE":"LARGE","OBJECT_ID":"2021-082X","APOAPSIS":"573.990","TLE_LINE2":"2 49151  70.0019 201.5966 0002777 271.3762  88.7079 14.98329362 80205","FILE":"3787692","COUNTRY_CODE":"US","OBJECT_NAME":"STARLINK-3102","SEMIMAJOR_AXIS":"6950.195","RA_OF_ASC_NODE":"201.5966","ECCENTRICITY":"0.00027770","TLE_LINE1":"1 49151U 21082X   23043.40959630 -.00000474  00000-0 -31943-4 0  9992","MEAN_MOTION_DDOT":"0.0000000000000","EPOCH":"2023-02-12T09:49:49.120320","TIME_SYSTEM":"UTC","GP_ID":"225235476","INCLINATION":"70.0019","CLASSIFICATION_TYPE":"U","EPHEMERIS_TYPE":"0","ARG_OF_PERICENTER":"271.3762","MEAN_MOTION":"14.98329362","PERIAPSIS":"570.130","BSTAR":"-0.00003194300000","REV_AT_EPOCH":"8020","PERIOD":"96.107","ELEMENT_SET_NO":"999","MEAN_MOTION_DOT":"-0.00000474","NORAD_CAT_ID":"49151","LAUNCH_DATE":"2021-09-14","CENTER_NAME":"EARTH","OBJECT_TYPE":"PAYLOAD","REF_FRAME":"TEME","DECAY_DATE":null},{"TLE_LINE1":"1 49152U 21082Y   23042.71814786  .00000960  00000-0  88275-4 0  9996","MEAN_MOTION_DDOT":"0.0000000000000","EPOCH":"2023-02-11T17:14:07.975104","TIME_SYSTEM":"UTC","GP_ID":"225266888","INCLINATION":"70.0016","ARG_OF_PERICENTER":"269.5867","EPHEMERIS_TYPE":"0","CLASSIFICATION_TYPE":"U","PERIAPSIS":"569.943","MEAN_MOTION":"14.98331738","REV_AT_EPOCH":"8003","BSTAR":"0.00008827500000","PERIOD":"96.107","ELEMENT_SET_NO":"999","NORAD_CAT_ID":"49152","MEAN_MOTION_DOT":"0.00000960","LAUNCH_DATE":"2021-09-14","CENTER_NAME":"EARTH","REF_FRAME":"TEME","DECAY_DATE":null,"OBJECT_TYPE":"PAYLOAD","MEAN_ELEMENT_THEORY":"SGP4","SITE":"AFWTR","MEAN_ANOMALY":"90.4944","RCS_SIZE":"LARGE","OBJECT_ID":"2021-082Y","TLE_LINE2":"2 49152  70.0016 203.3355 0003035 269.5867  90.4944 14.98331738 80030","APOAPSIS":"574.162","COUNTRY_CODE":"US","OBJECT_NAME":"STARLINK-3081","FILE":"3787720","SEMIMAJOR_AXIS":"6950.188","RA_OF_ASC_NODE":"203.3355","ECCENTRICITY":"0.00030350"},{"RA_OF_ASC_NODE":"201.6197","ECCENTRICITY":"0.00028820","TLE_LINE2":"2 49153  70.0009 201.6197 0002882 269.2241  90.8588 14.98334772 80219","APOAPSIS":"574.046","COUNTRY_CODE":"US","OBJECT_NAME":"STARLINK-3072","FILE":"3787692","SEMIMAJOR_AXIS":"6950.178","RCS_SIZE":"LARGE","OBJECT_ID":"2021-082Z","MEAN_ELEMENT_THEORY":"SGP4","MEAN_ANOMALY":"90.8588","SITE":"AFWTR","NORAD_CAT_ID":"49153","MEAN_MOTION_DOT":"-0.00001877","LAUNCH_DATE":"2021-09-14","CENTER_NAME":"EARTH","DECAY_DATE":null,"REF_FRAME":"TEME","OBJECT_TYPE":"PAYLOAD","REV_AT_EPOCH":"8021","BSTAR":"-0.00014958000000","PERIOD":"96.107","ELEMENT_SET_NO":"999","TIME_SYSTEM":"UTC","GP_ID":"225234487","INCLINATION":"70.0009","EPHEMERIS_TYPE":"0","ARG_OF_PERICENTER":"269.2241","CLASSIFICATION_TYPE":"U","PERIAPSIS":"570.040","MEAN_MOTION":"14.98334772","TLE_LINE1":"1 49153U 21082Z   23043.40005672 -.00001877  00000-0 -14958-3 0  9996","MEAN_MOTION_DDOT":"0.0000000000000","EPOCH":"2023-02-12T09:36:04.900608"},{"FILE":"3787692","COUNTRY_CODE":"US","OBJECT_NAME":"STARLINK-3068","APOAPSIS":"574.237","TLE_LINE2":"2 49154  70.0007 221.3813 0003133 270.5569  89.5231 14.98329370 79609","SEMIMAJOR_AXIS":"6950.195","ECCENTRICITY":"0.00031330","RA_OF_ASC_NODE":"221.3813","MEAN_ELEMENT_THEORY":"SGP4","MEAN_ANOMALY":"89.5231","SITE":"AFWTR","RCS_SIZE":"LARGE","OBJECT_ID":"2021-082AA","PERIOD":"96.107","BSTAR":"0.00004540000000","REV_AT_EPOCH":"7960","ELEMENT_SET_NO":"999","LAUNCH_DATE":"2021-09-14","CENTER_NAME":"EARTH","MEAN_MOTION_DOT":"0.00000449","NORAD_CAT_ID":"49154","OBJECT_TYPE":"PAYLOAD","REF_FRAME":"TEME","DECAY_DATE":null,"TLE_LINE1":"1 49154U 21082AA  23043.49410344  .00000449  00000-0  45400-4 0  9991","EPOCH":"2023-02-12T11:51:30.537216","MEAN_MOTION_DDOT":"0.0000000000000","INCLINATION":"70.0007","TIME_SYSTEM":"UTC","GP_ID":"225234737","MEAN_MOTION":"14.98329370","PERIAPSIS":"569.882","CLASSIFICATION_TYPE":"U","ARG_OF_PERICENTER":"270.5569","EPHEMERIS_TYPE":"0"},{"MEAN_MOTION_DOT":"0.00000331","NORAD_CAT_ID":"49155","LAUNCH_DATE":"2021-09-14","CENTER_NAME":"EARTH","DECAY_DATE":null,"REF_FRAME":"TEME","OBJECT_TYPE":"PAYLOAD","REV_AT_EPOCH":"8008","BSTAR":"0.00003549200000","PERIOD":"96.107","ELEMENT_SET_NO":"999","GP_ID":"225234977","TIME_SYSTEM":"UTC","INCLINATION":"70.0002","ARG_OF_PERICENTER":"269.7371","EPHEMERIS_TYPE":"0","CLASSIFICATION_TYPE":"U","PERIAPSIS":"569.946","MEAN_MOTION":"14.98329904","TLE_LINE1":"1 49155U 21082AB  23043.39528782  .00000331  00000-0  35492-4 0  9997","MEAN_MOTION_DDOT":"0.0000000000000","EPOCH":"2023-02-12T09:29:12.867648","RA_OF_ASC_NODE":"201.6423","ECCENTRICITY":"0.00030390","TLE_LINE2":"2 49155  70.0002 201.6423 0003039 269.7371  90.3439 14.98329904 80086","APOAPSIS":"574.170","COUNTRY_CODE":"US","OBJECT_NAME":"STARLINK-3060","FILE":"3787692","SEMIMAJOR_AXIS":"6950.193","RCS_SIZE":"LARGE","OBJECT_ID":"2021-082AB","MEAN_ELEMENT_THEORY":"SGP4","MEAN_ANOMALY":"90.3439","SITE":"AFWTR"},{"EPOCH":"2023-02-12T10:37:52.471488","MEAN_MOTION_DDOT":"0.0000000000000","TLE_LINE1":"1 49156U 21082AC  23043.44296842 -.00000815  00000-0 -60517-4 0  9998","PERIAPSIS":"569.786","MEAN_MOTION":"14.98339827","EPHEMERIS_TYPE":"0","ARG_OF_PERICENTER":"271.6735","CLASSIFICATION_TYPE":"U","INCLINATION":"70.0008","GP_ID":"225233740","TIME_SYSTEM":"UTC","ELEMENT_SET_NO":"999","PERIOD":"96.106","REV_AT_EPOCH":"8009","BSTAR":"-0.00006051700000","REF_FRAME":"TEME","DECAY_DATE":null,"OBJECT_TYPE":"PAYLOAD","CENTER_NAME":"EARTH","LAUNCH_DATE":"2021-09-14","NORAD_CAT_ID":"49156","MEAN_MOTION_DOT":"-0.00000815","SITE":"AFWTR","MEAN_ANOMALY":"88.4055","MEAN_ELEMENT_THEORY":"SGP4","OBJECT_ID":"2021-082AC","RCS_SIZE":"LARGE","SEMIMAJOR_AXIS":"6950.163","COUNTRY_CODE":"US","OBJECT_NAME":"STARLINK-3085","FILE":"3787692","TLE_LINE2":"2 49156  70.0008 201.5116 0003225 271.6735  88.4055 14.98339827 80092","APOAPSIS":"574.269","ECCENTRICITY":"0.00032250","RA_OF_ASC_NODE":"201.5116"},{"SEMIMAJOR_AXIS":"6950.186","FILE":"3787763","COUNTRY_CODE":"US","OBJECT_NAME":"STARLINK-3051","APOAPSIS":"574.139","TLE_LINE2":"2 49157  70.0001 220.7218 0003004 269.3592  90.7223 14.98332234 79661","ECCENTRICITY":"0.00030040","RA_OF_ASC_NODE":"220.7218","SITE":"AFWTR","MEAN_ANOMALY":"90.7223","MEAN_ELEMENT_THEORY":"SGP4","OBJECT_ID":"2021-082AD","RCS_SIZE":"LARGE","ELEMENT_SET_NO":"999","PERIOD":"96.107","BSTAR":"0.00009731500000","REV_AT_EPOCH":"7966","OBJECT_TYPE":"PAYLOAD","DECAY_DATE":null,"REF_FRAME":"TEME","LAUNCH_DATE":"2021-09-14","CENTER_NAME":"EARTH","NORAD_CAT_ID":"49157","MEAN_MOTION_DOT":"0.00001068","EPOCH":"2023-02-12T18:09:10.621152","MEAN_MOTION_DDOT":"0.0000000000000","TLE_LINE1":"1 49157U 21082AD  23043.75637293  .00001068  00000-0  97315-4 0  9997","MEAN_MOTION":"14.98332234","PERIAPSIS":"569.963","CLASSIFICATION_TYPE":"U","ARG_OF_PERICENTER":"269.3592","EPHEMERIS_TYPE":"0","INCLINATION":"70.0001","GP_ID":"225267663","TIME_SYSTEM":"UTC"},{"PERIAPSIS":"569.908","MEAN_MOTION":"14.98420280","ARG_OF_PERICENTER":"276.8867","EPHEMERIS_TYPE":"0","CLASSIFICATION_TYPE":"U","INCLINATION":"69.9995","GP_ID":"225235237","TIME_SYSTEM":"UTC","EPOCH":"2023-02-12T11:37:30.830304","MEAN_MOTION_DDOT":"0.0000000000000","TLE_LINE1":"1 49158U 21082AE  23043.48438461  .00008427  00000-0  71155-3 0  9993","REF_FRAME":"TEME","DECAY_DATE":null,"OBJECT_TYPE":"PAYLOAD","LAUNCH_DATE":"2021-09-14","CENTER_NAME":"EARTH","MEAN_MOTION_DOT":"0.00008427","NORAD_CAT_ID":"49158","ELEMENT_SET_NO":"999","PERIOD":"96.101","REV_AT_EPOCH":"7962","BSTAR":"0.00071155000000","OBJECT_ID":"2021-082AE","RCS_SIZE":"LARGE","SITE":"AFWTR","MEAN_ANOMALY":"83.1986","MEAN_ELEMENT_THEORY":"SGP4","ECCENTRICITY":"0.00026920","RA_OF_ASC_NODE":"221.4125","SEMIMAJOR_AXIS":"6949.914","COUNTRY_CODE":"US","OBJECT_NAME":"STARLINK-3083","FILE":"3787692","TLE_LINE2":"2 49158  69.9995 221.4125 0002692 276.8867  83.1986 14.98420280 79623","APOAPSIS":"573.650"},{"DECAY_DATE":null,"REF_FRAME":"TEME","OBJECT_TYPE":"PAYLOAD","MEAN_MOTION_DOT":"0.00000393","NORAD_CAT_ID":"49159","LAUNCH_DATE":"2021-09-14","CENTER_NAME":"EARTH","ELEMENT_SET_NO":"999","REV_AT_EPOCH":"7917","BSTAR":"0.00004068500000","PERIOD":"96.107","ARG_OF_PERICENTER":"271.1508","EPHEMERIS_TYPE":"0","CLASSIFICATION_TYPE":"U","PERIAPSIS":"570.381","MEAN_MOTION":"14.98334962","TIME_SYSTEM":"UTC","GP_ID":"225267886","INCLINATION":"69.9995","MEAN_MOTION_DDOT":"0.0000000000000","EPOCH":"2023-02-12T18:55:20.184384","TLE_LINE1":"1 49159U 21082AF  23043.78842806  .00000393  00000-0  40685-4 0  9998","RA_OF_ASC_NODE":"240.6442","ECCENTRICITY":"0.00023900","SEMIMAJOR_AXIS":"6950.178","TLE_LINE2":"2 49159  69.9995 240.6442 0002390 271.1508  88.9377 14.98334962 79172","APOAPSIS":"573.704","OBJECT_NAME":"STARLINK-3056","COUNTRY_CODE":"US","FILE":"3787778","OBJECT_ID":"2021-082AF","RCS_SIZE":"LARGE","MEAN_ANOMALY":"88.9377","SITE":"AFWTR","MEAN_ELEMENT_THEORY":"SGP4"},{"FILE":"3787692","COUNTRY_CODE":"US","OBJECT_NAME":"STARLINK-3095","APOAPSIS":"573.765","TLE_LINE2":"2 49160  69.9989 242.0150 0002424 272.1353  87.9529 14.98322838 79061","SEMIMAJOR_AXIS":"6950.215","ECCENTRICITY":"0.00024240","RA_OF_ASC_NODE":"242.0150","MEAN_ELEMENT_THEORY":"SGP4","SITE":"AFWTR","MEAN_ANOMALY":"87.9529","RCS_SIZE":"LARGE","OBJECT_ID":"2021-082AG","PERIOD":"96.107","BSTAR":"0.00019284000000","REV_AT_EPOCH":"7906","ELEMENT_SET_NO":"999","LAUNCH_DATE":"2021-09-14","CENTER_NAME":"EARTH","NORAD_CAT_ID":"49160","MEAN_MOTION_DOT":"0.00002208","OBJECT_TYPE":"PAYLOAD","REF_FRAME":"TEME","DECAY_DATE":null,"TLE_LINE1":"1 49160U 21082AG  23043.24481865  .00002208  00000-0  19284-3 0  9992","EPOCH":"2023-02-12T05:52:32.331360","MEAN_MOTION_DDOT":"0.0000000000000","INCLINATION":"69.9989","TIME_SYSTEM":"UTC","GP_ID":"225234240","MEAN_MOTION":"14.98322838","PERIAPSIS":"570.395","CLASSIFICATION_TYPE":"U","ARG_OF_PERICENTER":"272.1353","EPHEMERIS_TYPE":"0"}];
